- id: gps-62339
  name: NAVSTAR 83 (USA 440)
  allegiance: friendly
  components:
    - kind: space_orbit
      data:
        line1: "1 62339U 24242A   26084.32879528 -.00000085  00000+0  00000+0 0  9993"
        line2: "2 62339  54.8829 337.5830 0016359 358.9940 177.9462  2.00569753  9576"
        fov_half_angle_deg: 5.0
    - kind: symbol
      data:
        sidc_template:
          version: "10"
          context: reality
          standard_identity: friend
          symbol_set: space
          status: present
          hqtfd: not_applicable
          amplifier: unspecified
          entity: code_110700
          modifier_one: code_02
          modifier_two: code_00
